{
  "type": "FeatureCollection",
  "features": [
    {
      "type": "Feature",
      "properties": {
        "norad_id": 43823,
        "name": "GEO-KOMPSAT-2A",
        "group": "weather",
        "lat": -0.035983712964798506,
        "lon": 2.491128659981447,
        "alt_km": 35788.84626755776,
        "timestamp": "2025-12-02T10:50:46.915524+00:00",
        "meta_object_name": "GEO-KOMPSAT-2A",
        "meta_object_id": "2018-100A",
        "meta_epoch": "2025-12-01T23:15:38.582784",
        "meta_mean_motion": 1.00270755,
        "meta_eccentricity": 5.77e-05,
        "meta_inclination": 0.0611,
        "meta_ra_of_asc_node": 123.5335,
        "meta_arg_of_pericenter": 67.7491,
        "meta_mean_anomaly": 356.9772,
        "meta_ephemeris_type": 0,
        "meta_classification_type": "U",
        "meta_norad_cat_id": 43823,
        "meta_element_set_no": 999,
        "meta_rev_at_epoch": 2565,
        "meta_bstar": 0,
        "meta_mean_motion_dot": -3.22e-06,
        "meta_mean_motion_ddot": 0,
        "tle_line1": "1 43823U 18100A   25335.96919656 -.00000322  00000+0  00000+0 0  9995",
        "tle_line2": "2 43823   0.0611 123.5335 0000577  67.7491 356.9772  1.00270755 25659"
      },
      "geometry": {
        "type": "Point",
        "coordinates": [
          2.491128659981447,
          -0.035983712964798506
        ]
      }
    },
    {
      "type": "Feature",
      "properties": {
        "norad_id": 44387,
        "name": "METEOR-M2 2",
        "group": "weather",
        "lat": -34.218354214214344,
        "lon": 129.94082338091647,
        "alt_km": 816.6383044711838,
        "timestamp": "2025-12-02T10:50:46.915535+00:00",
        "meta_object_name": "METEOR-M2 2",
        "meta_object_id": "2019-038A",
        "meta_epoch": "2025-12-02T03:05:52.518912",
        "meta_mean_motion": 14.24284016,
        "meta_eccentricity": 8.15e-05,
        "meta_inclination": 98.8962,
        "meta_ra_of_asc_node": 315.7287,
        "meta_arg_of_pericenter": 170.9582,
        "meta_mean_anomaly": 189.1611,
        "meta_ephemeris_type": 0,
        "meta_classification_type": "U",
        "meta_norad_cat_id": 44387,
        "meta_element_set_no": 999,
        "meta_rev_at_epoch": 33324,
        "meta_bstar": 0.00010896,
        "meta_mean_motion_dot": 2.06e-06,
        "meta_mean_motion_ddot": 0,
        "tle_line1": "1 44387U 19038A   25336.12908008  .00000206  00000+0  10896-3 0  9998",
        "tle_line2": "2 44387  98.8962 315.7287 0000815 170.9582 189.1611 14.24284016333243"
      },
      "geometry": {
        "type": "Point",
        "coordinates": [
          129.94082338091647,
          -34.218354214214344
        ]
      }
    },
    {
      "type": "Feature",
      "properties": {
        "norad_id": 47719,
        "name": "ARKTIKA-M 1",
        "group": "weather",
        "lat": 56.40571261710593,
        "lon": -144.16076534707614,
        "alt_km": 32137.849365685728,
        "timestamp": "2025-12-02T10:50:46.915548+00:00",
        "meta_object_name": "ARKTIKA-M 1",
        "meta_object_id": "2021-016A",
        "meta_epoch": "2025-12-01T02:41:41.634816",
        "meta_mean_motion": 2.00613156,
        "meta_eccentricity": 0.7197471,
        "meta_inclination": 63.1756,
        "meta_ra_of_asc_node": 85.6045,
        "meta_arg_of_pericenter": 269.084,
        "meta_mean_anomaly": 15.7076,
        "meta_ephemeris_type": 0,
        "meta_classification_type": "U",
        "meta_norad_cat_id": 47719,
        "meta_element_set_no": 999,
        "meta_rev_at_epoch": 3481,
        "meta_bstar": 0,
        "meta_mean_motion_dot": -1.2e-07,
        "meta_mean_motion_ddot": 0,
        "tle_line1": "1 47719U 21016A   25335.11228744 -.00000012  00000+0  00000+0 0  9997",
        "tle_line2": "2 47719  63.1756  85.6045 7197471 269.0840  15.7076  2.00613156 34817"
      },
      "geometry": {
        "type": "Point",
        "coordinates": [
          -144.16076534707614,
          56.40571261710593
        ]
      }
    },
    {
      "type": "Feature",
      "properties": {
        "norad_id": 49008,
        "name": "FENGYUN 3E",
        "group": "weather",
        "lat": -22.737735272367203,
        "lon": -19.205291869650605,
        "alt_km": 830.5374621549636,
        "timestamp": "2025-12-02T10:50:46.915563+00:00",
        "meta_object_name": "FENGYUN 3E",
        "meta_object_id": "2021-062A",
        "meta_epoch": "2025-12-02T04:11:22.452288",
        "meta_mean_motion": 14.1987768,
        "meta_eccentricity": 8.08e-05,
        "meta_inclination": 98.7476,
        "meta_ra_of_asc_node": 336.821,
        "meta_arg_of_pericenter": 331.1841,
        "meta_mean_anomaly": 28.929,
        "meta_ephemeris_type": 0,
        "meta_classification_type": "U",
        "meta_norad_cat_id": 49008,
        "meta_element_set_no": 999,
        "meta_rev_at_epoch": 22862,
        "meta_bstar": 4.35e-05,
        "meta_mean_motion_dot": 4.8e-07,
        "meta_mean_motion_ddot": 0,
        "tle_line1": "1 49008U 21062A   25336.17456542  .00000048  00000+0  43500-4 0  9992",
        "tle_line2": "2 49008  98.7476 336.8210 0000808 331.1841  28.9290 14.19877680228625"
      },
      "geometry": {
        "type": "Point",
        "coordinates": [
          -19.205291869650605,
          -22.737735272367203
        ]
      }
    },
    {
      "type": "Feature",
      "properties": {
        "norad_id": 51850,
        "name": "GOES 18",
        "group": "weather",
        "lat": -0.001135598782652736,
        "lon": 97.22628281948211,
        "alt_km": 35789.274337961244,
        "timestamp": "2025-12-02T10:50:46.915575+00:00",
        "meta_object_name": "GOES 18",
        "meta_object_id": "2022-021A",
        "meta_epoch": "2025-12-02T02:51:33.280416",
        "meta_mean_motion": 1.00270121,
        "meta_eccentricity": 6.65e-05,
        "meta_inclination": 0.0107,
        "meta_ra_of_asc_node": 75.353,
        "meta_arg_of_pericenter": 212.7021,
        "meta_mean_anomaly": 49.0652,
        "meta_ephemeris_type": 0,
        "meta_classification_type": "U",
        "meta_norad_cat_id": 51850,
        "meta_element_set_no": 999,
        "meta_rev_at_epoch": 461,
        "meta_bstar": 0,
        "meta_mean_motion_dot": 1.18e-06,
        "meta_mean_motion_ddot": 0,
        "tle_line1": "1 51850U 22021A   25336.11913519  .00000118  00000+0  00000+0 0  9993",
        "tle_line2": "2 51850   0.0107  75.3530 0000665 212.7021  49.0652  1.00270121  4615"
      },
      "geometry": {
        "type": "Point",
        "coordinates": [
          97.22628281948211,
          -0.001135598782652736
        ]
      }
    },
    {
      "type": "Feature",
      "properties": {
        "norad_id": 54234,
        "name": "NOAA 21 (JPSS-2)",
        "group": "weather",
        "lat": -3.402699559539354,
        "lon": -86.58640348335602,
        "alt_km": 829.4054223665835,
        "timestamp": "2025-12-02T10:50:46.915586+00:00",
        "meta_object_name": "NOAA 21 (JPSS-2)",
        "meta_object_id": "2022-150A",
        "meta_epoch": "2025-12-02T02:24:15.168384",
        "meta_mean_motion": 14.19519242,
        "meta_eccentricity": 0.0002563,
        "meta_inclination": 98.7446,
        "meta_ra_of_asc_node": 272.542,
        "meta_arg_of_pericenter": 57.8485,
        "meta_mean_anomaly": 302.294,
        "meta_ephemeris_type": 0,
        "meta_classification_type": "U",
        "meta_norad_cat_id": 54234,
        "meta_element_set_no": 999,
        "meta_rev_at_epoch": 15858,
        "meta_bstar": 7.2477e-05,
        "meta_mean_motion_dot": 1.09e-06,
        "meta_mean_motion_ddot": 0,
        "tle_line1": "1 54234U 22150A   25336.10017556  .00000109  00000+0  72477-4 0  9992",
        "tle_line2": "2 54234  98.7446 272.5420 0002563  57.8485 302.2940 14.19519242158588"
      },
      "geometry": {
        "type": "Point",
        "coordinates": [
          -86.58640348335602,
          -3.402699559539354
        ]
      }
    },
    {
      "type": "Feature",
      "properties": {
        "norad_id": 54743,
        "name": "METEOSAT-12 (MTG-I1)",
        "group": "weather",
        "lat": -0.3157287489471171,
        "lon": -126.07669384383978,
        "alt_km": 35779.560893963,
        "timestamp": "2025-12-02T10:50:46.915599+00:00",
        "meta_object_name": "METEOSAT-12 (MTG-I1)",
        "meta_object_id": "2022-170C",
        "meta_epoch": "2025-12-02T03:30:34.806816",
        "meta_mean_motion": 1.00273493,
        "meta_eccentricity": 0.0001451,
        "meta_inclination": 0.7153,
        "meta_ra_of_asc_node": 29.7901,
        "meta_arg_of_pericenter": 213.1409,
        "meta_mean_anomaly": 240.6702,
        "meta_ephemeris_type": 0,
        "meta_classification_type": "U",
        "meta_norad_cat_id": 54743,
        "meta_element_set_no": 999,
        "meta_rev_at_epoch": 1100,
        "meta_bstar": 0,
        "meta_mean_motion_dot": 1.4e-07,
        "meta_mean_motion_ddot": 0,
        "tle_line1": "1 54743U 22170C   25336.14623619  .00000014  00000+0  00000+0 0  9999",
        "tle_line2": "2 54743   0.7153  29.7901 0001451 213.1409 240.6702  1.00273493 11002"
      },
      "geometry": {
        "type": "Point",
        "coordinates": [
          -126.07669384383978,
          -0.3157287489471171
        ]
      }
    }
  ]
}